QIANFAN-65              
1 62795U 25016L   25354.13692172  .00000132  00000+0  18646-3 0  9996
2 62795  88.9766 102.2949 0012530 326.3908  33.6447 13.50986350 48249
QIANFAN-66              
1 62796U 25016M   25354.16574197  .00000130  00000+0  18288-3 0  9996
2 62796  88.9785 102.2635 0013563 320.9514  39.0657 13.50979131 48290
QIANFAN-67              
1 62797U 25016N   25354.09590737  .00000132  00000+0  18557-3 0  9998
2 62797  88.9775 102.2957 0013659 328.8175  31.2164 13.50983284 48250
QIANFAN-68              
1 62798U 25016P   25354.16165338  .00000136  00000+0  19285-3 0  9995
2 62798  88.9779 102.3343 0013674 326.6509  33.3780 13.50985719 48240
QIANFAN-69              
1 62799U 25016Q   25354.17813075  .00000133  00000+0  18804-3 0  9998
2 62799  88.9758 102.2004 0014438 327.6029  32.4235 13.50988466 48289
QIANFAN-70              
1 62800U 25016R   25354.12054200  .00000144  00000+0  20426-3 0  9998
2 62800  88.9779 102.3464 0013894 317.3107  42.6964 13.50979397 48234
QIANFAN-71              
1 62801U 25016S   25354.11634769  .00000137  00000+0  19383-3 0  9994
2 62801  88.9773 102.3258 0014408 331.6754  28.3612 13.50978930 48232
QIANFAN-72              
1 62802U 25016T   25354.13281003  .00000131  00000+0  18377-3 0  9992
2 62802  88.9763 102.3368 0017850 338.5479  21.4922 13.50986447 48227
